start=new Date('2022-12-03T00:00:00.000Z').valueOf();
sats=[{"SEMIMAJOR_AXIS":"6925.377","MEAN_ANOMALY":"292.8861","RCS_SIZE":"LARGE","NORAD_CAT_ID":"45573","TIME_SYSTEM":"UTC","OBJECT_TYPE":"PAYLOAD","MEAN_MOTION":"15.06390822","ELEMENT_SET_NO":"999","ECCENTRICITY":"0.00015340","CLASSIFICATION_TYPE":"U","REF_FRAME":"TEME","BSTAR":"0.00004506900000","MEAN_MOTION_DDOT":"0.0000000000000","OBJECT_NAME":"STARLINK-1321","GP_ID":"219347521","EPOCH":"2022-12-02T10:12:35.672832","DECAY_DATE":null,"APOAPSIS":"548.304","LAUNCH_DATE":"2020-04-22","CENTER_NAME":"EARTH","TLE_LINE1":"1 45573U 20025AU  22336.42541288  .00000390  00000-0  45069-4 0  9993","TLE_LINE2":"2 45573  53.0559  33.3941 0001534  67.2289 292.8861 15.06390822145353","MEAN_MOTION_DOT":"0.00000390","REV_AT_EPOCH":"14535","MEAN_ELEMENT_THEORY":"SGP4","FILE":"3679245","COUNTRY_CODE":"US","EPHEMERIS_TYPE":"0","PERIOD":"95.593","SITE":"AFETR","INCLINATION":"53.0559","ARG_OF_PERICENTER":"67.2289","PERIAPSIS":"546.179","OBJECT_ID":"2020-025AU","RA_OF_ASC_NODE":"33.3941"},{"BSTAR":"0.00006549900000","GP_ID":"219377886","EPOCH":"2022-12-02T15:36:21.471264","DECAY_DATE":null,"LAUNCH_DATE":"2020-04-22","APOAPSIS":"548.244","OBJECT_NAME":"STARLINK-1324","MEAN_MOTION_DDOT":"0.0000000000000","RCS_SIZE":"LARGE","MEAN_ANOMALY":"297.8148","NORAD_CAT_ID":"45574","TIME_SYSTEM":"UTC","SEMIMAJOR_AXIS":"6925.358","CLASSIFICATION_TYPE":"U","REF_FRAME":"TEME","MEAN_MOTION":"15.06396769","OBJECT_TYPE":"PAYLOAD","ECCENTRICITY":"0.00014730","ELEMENT_SET_NO":"999","SITE":"AFETR","INCLINATION":"53.0575","EPHEMERIS_TYPE":"0","PERIOD":"95.592","OBJECT_ID":"2020-025AV","PERIAPSIS":"546.203","RA_OF_ASC_NODE":"32.3721","ARG_OF_PERICENTER":"62.2990","CENTER_NAME":"EARTH","FILE":"3679625","COUNTRY_CODE":"US","TLE_LINE1":"1 45574U 20025AV  22336.65024851  .00000694  00000-0  65499-4 0  9997","MEAN_MOTION_DOT":"0.00000694","TLE_LINE2":"2 45574  53.0575  32.3721 0001473  62.2990 297.8148 15.06396769145701","REV_AT_EPOCH":"14570","MEAN_ELEMENT_THEORY":"SGP4"},{"TLE_LINE1":"1 45575U 20025AW  22336.82178881  .00028531  00000-0  12010-2 0  9999","MEAN_ELEMENT_THEORY":"SGP4","MEAN_MOTION_DOT":"0.00028531","TLE_LINE2":"2 45575  53.0074   5.1001 0004247  35.0402 325.0872 15.23166952146058","REV_AT_EPOCH":"14605","FILE":"3679625","COUNTRY_CODE":"US","CENTER_NAME":"EARTH","ARG_OF_PERICENTER":"35.0402","PERIAPSIS":"493.378","OBJECT_ID":"2020-025AW","RA_OF_ASC_NODE":"5.1001","PERIOD":"94.540","EPHEMERIS_TYPE":"0","SITE":"AFETR","INCLINATION":"53.0074","MEAN_MOTION":"15.23166952","OBJECT_TYPE":"PAYLOAD","ECCENTRICITY":"0.00042470","ELEMENT_SET_NO":"999","REF_FRAME":"TEME","CLASSIFICATION_TYPE":"U","SEMIMAJOR_AXIS":"6874.432","MEAN_ANOMALY":"325.0872","RCS_SIZE":"LARGE","TIME_SYSTEM":"UTC","NORAD_CAT_ID":"45575","MEAN_MOTION_DDOT":"0.0000000000000","OBJECT_NAME":"STARLINK-1326","EPOCH":"2022-12-02T19:43:22.553184","GP_ID":"219378134","APOAPSIS":"499.217","LAUNCH_DATE":"2020-04-22","DECAY_DATE":null,"BSTAR":"0.00120100000000"},{"MEAN_ANOMALY":"303.5924","RCS_SIZE":"LARGE","NORAD_CAT_ID":"45576","TIME_SYSTEM":"UTC","SEMIMAJOR_AXIS":"6925.347","CLASSIFICATION_TYPE":"U","REF_FRAME":"TEME","MEAN_MOTION":"15.06400403","OBJECT_TYPE":"PAYLOAD","ELEMENT_SET_NO":"999","ECCENTRICITY":"0.00015630","BSTAR":"0.00012314000000","GP_ID":"219354052","EPOCH":"2022-12-02T13:02:25.782144","DECAY_DATE":null,"APOAPSIS":"548.295","LAUNCH_DATE":"2020-04-22","OBJECT_NAME":"STARLINK-1328","MEAN_MOTION_DDOT":"0.0000000000000","CENTER_NAME":"EARTH","FILE":"3679264","COUNTRY_CODE":"US","TLE_LINE1":"1 45576U 20025AX  22336.54335396  .00001553  00000-0  12314-3 0  9998","TLE_LINE2":"2 45576  53.0552  32.8723 0001563  56.5214 303.5924 15.06400403145078","MEAN_MOTION_DOT":"0.00001553","REV_AT_EPOCH":"14507","MEAN_ELEMENT_THEORY":"SGP4","INCLINATION":"53.0552","SITE":"AFETR","EPHEMERIS_TYPE":"0","PERIOD":"95.592","OBJECT_ID":"2020-025AX","PERIAPSIS":"546.130","RA_OF_ASC_NODE":"32.8723","ARG_OF_PERICENTER":"56.5214"},{"ARG_OF_PERICENTER":"19.7819","PERIAPSIS":"532.640","OBJECT_ID":"2020-025AY","RA_OF_ASC_NODE":"31.2296","PERIOD":"95.311","EPHEMERIS_TYPE":"0","SITE":"AFETR","INCLINATION":"53.0541","TLE_LINE1":"1 45577U 20025AY  22336.54190905  .00016893  00000-0  10194-2 0  9990","MEAN_ELEMENT_THEORY":"SGP4","MEAN_MOTION_DOT":"0.00016893","TLE_LINE2":"2 45577  53.0541  31.2296 0001422  19.7819 340.3226 15.10845280145694","REV_AT_EPOCH":"14569","FILE":"3679245","COUNTRY_CODE":"US","CENTER_NAME":"EARTH","OBJECT_NAME":"STARLINK-1330","MEAN_MOTION_DDOT":"0.0000000000000","EPOCH":"2022-12-02T13:00:20.941920","GP_ID":"219348022","LAUNCH_DATE":"2020-04-22","APOAPSIS":"534.606","DECAY_DATE":null,"BSTAR":"0.00101940000000","MEAN_MOTION":"15.10845280","OBJECT_TYPE":"PAYLOAD","ECCENTRICITY":"0.00014220","ELEMENT_SET_NO":"999","REF_FRAME":"TEME","CLASSIFICATION_TYPE":"U","SEMIMAJOR_AXIS":"6911.758","RCS_SIZE":"LARGE","MEAN_ANOMALY":"340.3226","TIME_SYSTEM":"UTC","NORAD_CAT_ID":"45577"},{"BSTAR":"0.00009067400000","OBJECT_NAME":"STARLINK-1331","MEAN_MOTION_DDOT":"0.0000000000000","APOAPSIS":"548.275","LAUNCH_DATE":"2020-04-22","DECAY_DATE":null,"EPOCH":"2022-12-02T14:27:21.920256","GP_ID":"219378385","SEMIMAJOR_AXIS":"6925.390","TIME_SYSTEM":"UTC","NORAD_CAT_ID":"45578","RCS_SIZE":"LARGE","MEAN_ANOMALY":"304.8565","ECCENTRICITY":"0.00014730","ELEMENT_SET_NO":"999","OBJECT_TYPE":"PAYLOAD","MEAN_MOTION":"15.06386517","REF_FRAME":"TEME","CLASSIFICATION_TYPE":"U","PERIOD":"95.593","EPHEMERIS_TYPE":"0","INCLINATION":"53.0576","SITE":"AFETR","ARG_OF_PERICENTER":"55.2562","RA_OF_ASC_NODE":"32.5986","OBJECT_ID":"2020-025AZ","PERIAPSIS":"546.235","CENTER_NAME":"EARTH","MEAN_ELEMENT_THEORY":"SGP4","TLE_LINE2":"2 45578  53.0576  32.5986 0001473  55.2562 304.8565 15.06386517145698","REV_AT_EPOCH":"14569","MEAN_MOTION_DOT":"0.00001069","TLE_LINE1":"1 45578U 20025AZ  22336.60233704  .00001069  00000-0  90674-4 0  9995","COUNTRY_CODE":"US","FILE":"3679625"},{"OBJECT_ID":"2020-025BA","PERIAPSIS":"546.195","RA_OF_ASC_NODE":"352.1235","ARG_OF_PERICENTER":"72.8279","SITE":"AFETR","INCLINATION":"53.0570","PERIOD":"95.593","EPHEMERIS_TYPE":"0","FILE":"3679625","COUNTRY_CODE":"US","TLE_LINE1":"1 45579U 20025BA  22336.74242268 -.00001090  00000-0 -54316-4 0  9995","MEAN_ELEMENT_THEORY":"SGP4","TLE_LINE2":"2 45579  53.0570 352.1235 0001511  72.8279 287.2875 15.06390971146265","MEAN_MOTION_DOT":"-0.00001090","REV_AT_EPOCH":"14626","CENTER_NAME":"EARTH","EPOCH":"2022-12-02T17:49:05.319552","GP_ID":"219378635","APOAPSIS":"548.288","LAUNCH_DATE":"2020-04-22","DECAY_DATE":null,"MEAN_MOTION_DDOT":"0.0000000000000","OBJECT_NAME":"STARLINK-1332","BSTAR":"-0.00005431600000","REF_FRAME":"TEME","CLASSIFICATION_TYPE":"U","OBJECT_TYPE":"PAYLOAD","MEAN_MOTION":"15.06390971","ELEMENT_SET_NO":"999","ECCENTRICITY":"0.00015110","RCS_SIZE":"LARGE","MEAN_ANOMALY":"287.2875","TIME_SYSTEM":"UTC","NORAD_CAT_ID":"45579","SEMIMAJOR_AXIS":"6925.376"},{"NORAD_CAT_ID":"45580","TIME_SYSTEM":"UTC","RCS_SIZE":"LARGE","MEAN_ANOMALY":"298.2987","SEMIMAJOR_AXIS":"6925.357","CLASSIFICATION_TYPE":"U","REF_FRAME":"TEME","ECCENTRICITY":"0.00014470","ELEMENT_SET_NO":"999","OBJECT_TYPE":"PAYLOAD","MEAN_MOTION":"15.06397270","BSTAR":"0.00002787500000","DECAY_DATE":null,"LAUNCH_DATE":"2020-04-22","APOAPSIS":"548.224","GP_ID":"219347772","EPOCH":"2022-12-02T11:25:33.835584","MEAN_MOTION_DDOT":"0.0000000000000","OBJECT_NAME":"STARLINK-1333","CENTER_NAME":"EARTH","COUNTRY_CODE":"US","FILE":"3679245","REV_AT_EPOCH":"14552","TLE_LINE2":"2 45580  53.0563  43.1558 0001447  61.8148 298.2987 15.06397270145528","MEAN_MOTION_DOT":"0.00000134","MEAN_ELEMENT_THEORY":"SGP4","TLE_LINE1":"1 45580U 20025BB  22336.47608606  .00000134  00000-0  27875-4 0  9995","SITE":"AFETR","INCLINATION":"53.0563","EPHEMERIS_TYPE":"0","PERIOD":"95.592","RA_OF_ASC_NODE":"43.1558","OBJECT_ID":"2020-025BB","PERIAPSIS":"546.220","ARG_OF_PERICENTER":"61.8148"},{"OBJECT_TYPE":"PAYLOAD","MEAN_MOTION":"15.06397595","ECCENTRICITY":"0.00014730","ELEMENT_SET_NO":"999","REF_FRAME":"TEME","CLASSIFICATION_TYPE":"U","SEMIMAJOR_AXIS":"6925.356","RCS_SIZE":"LARGE","MEAN_ANOMALY":"287.5340","TIME_SYSTEM":"UTC","NORAD_CAT_ID":"45581","MEAN_MOTION_DDOT":"0.0000000000000","OBJECT_NAME":"STARLINK-1335","EPOCH":"2022-12-02T13:07:44.175648","GP_ID":"219354298","APOAPSIS":"548.241","LAUNCH_DATE":"2020-04-22","DECAY_DATE":null,"BSTAR":"0.00001541900000","TLE_LINE1":"1 45581U 20025BC  22336.54703907 -.00000052  00000-0  15419-4 0  9995","MEAN_ELEMENT_THEORY":"SGP4","REV_AT_EPOCH":"14507","TLE_LINE2":"2 45581  53.0577  32.8447 0001473  72.5810 287.5340 15.06397595145074","MEAN_MOTION_DOT":"-0.00000052","FILE":"3679276","COUNTRY_CODE":"US","CENTER_NAME":"EARTH","ARG_OF_PERICENTER":"72.5810","OBJECT_ID":"2020-025BC","PERIAPSIS":"546.201","RA_OF_ASC_NODE":"32.8447","PERIOD":"95.592","EPHEMERIS_TYPE":"0","SITE":"AFETR","INCLINATION":"53.0577"},{"COUNTRY_CODE":"US","FILE":"3679625","MEAN_ELEMENT_THEORY":"SGP4","TLE_LINE2":"2 45582  53.0564  32.7533 0001899  51.8325 308.2835 15.06399770145672","MEAN_MOTION_DOT":"0.00000146","REV_AT_EPOCH":"14567","TLE_LINE1":"1 45582U 20025BD  22336.56915719  .00000146  00000-0  28717-4 0  9992","CENTER_NAME":"EARTH","RA_OF_ASC_NODE":"32.7533","PERIAPSIS":"545.899","OBJECT_ID":"2020-025BD","ARG_OF_PERICENTER":"51.8325","SITE":"AFETR","INCLINATION":"53.0564","PERIOD":"95.592","EPHEMERIS_TYPE":"0","REF_FRAME":"TEME","CLASSIFICATION_TYPE":"U","ECCENTRICITY":"0.00018990","ELEMENT_SET_NO":"999","MEAN_MOTION":"15.06399770","OBJECT_TYPE":"PAYLOAD","TIME_SYSTEM":"UTC","NORAD_CAT_ID":"45582","MEAN_ANOMALY":"308.2835","RCS_SIZE":"LARGE","SEMIMAJOR_AXIS":"6925.349","APOAPSIS":"548.529","LAUNCH_DATE":"2020-04-22","DECAY_DATE":null,"EPOCH":"2022-12-02T13:39:35.181216","GP_ID":"219377887","OBJECT_NAME":"STARLINK-1337","MEAN_MOTION_DDOT":"0.0000000000000","BSTAR":"0.00002871700000"}];
